STARLINK-2450           
1 48113U 21027X   26068.57980744 -.00000470  00000+0 -37549-5 0  9990
2 48113  53.1618 165.7996 0001451  69.6193 290.4964 15.30184924272485
EXO-0                   
1 59175U 23174DK  26068.71046781  .00011582  00000+0  36716-3 0  9992
2 59175  97.3864 148.9039 0009878 157.1125 203.0559 15.32821991129797
