[{"OBJECT_NAME":"STARLINK-2450","OBJECT_ID":"2021-027X","EPOCH":"2026-03-09T13:54:55.362816","MEAN_MOTION":15.30184924,"ECCENTRICITY":0.0001451,"INCLINATION":53.1618,"RA_OF_ASC_NODE":165.7996,"ARG_OF_PERICENTER":69.6193,"MEAN_ANOMALY":290.4964,"EPHEMERIS_TYPE":0,"CLASSIFICATION_TYPE":"U","NORAD_CAT_ID":48113,"ELEMENT_SET_NO":999,"REV_AT_EPOCH":27248,"BSTAR":-3.7549e-6,"MEAN_MOTION_DOT":-4.7e-6,"MEAN_MOTION_DDOT":0},{"OBJECT_NAME":"EXO-0","OBJECT_ID":"2023-174DK","EPOCH":"2026-03-09T17:03:04.419648","MEAN_MOTION":15.32821991,"ECCENTRICITY":0.00098779,"INCLINATION":97.3864,"RA_OF_ASC_NODE":148.9039,"ARG_OF_PERICENTER":157.1125,"MEAN_ANOMALY":203.0559,"EPHEMERIS_TYPE":0,"CLASSIFICATION_TYPE":"U","NORAD_CAT_ID":59175,"ELEMENT_SET_NO":999,"REV_AT_EPOCH":12979,"BSTAR":0.00036716083,"MEAN_MOTION_DOT":0.00011582,"MEAN_MOTION_DDOT":0}]
